SL-14 R/B               
1 16792U 86046B   26064.56395302  .00000645  00000+0  71559-4 0  9995
2 16792  82.4782  84.0813 0021742 239.7797 120.1266 14.85585893125790
SL-14 R/B               
1 16882U 86055B   26064.70602934  .00000634  00000+0  70193-4 0  9994
2 16882  82.5209 130.4184 0018530 350.0678 133.4923 14.85638740118775
AJISAI (EGS)            
1 16908U 86061A   26064.94116558 -.00000077  00000+0  13981-3 0  9991
2 16908  50.0080 104.8749 0011260 277.3952 152.3776 12.44515607467538
COSMOS 1812             
1 17295U 87003A   26065.13056457  .12040831 -12829-5  14059-3 0  9991
2 17295  82.4628 199.5909 0011771 272.0058  87.9898 16.49575463143916
SL-14 R/B               
1 17567U 87024B   26064.59886053  .00000615  00000+0  67260-4 0  9995
2 17567  82.5250  96.6097 0016679 274.7491  85.1820 14.86127704 87526
COSMOS 1833             
1 17589U 87027A   26064.89605824 -.00000142  00000+0 -50299-4 0  9991
2 17589  70.9231 333.9914 0024452 219.8148 140.1180 14.13055669  9785
SL-16 R/B               
1 17590U 87027B   26064.95130691 -.00000141  00000+0 -46208-4 0  9999
2 17590  71.0014 284.3735 0003597 151.0368 209.0956 14.17165783 14815
SL-14 R/B               
1 17912U 87038B   26064.72645989  .00000610  00000+0  67928-4 0  9996
2 17912  82.5008 300.5415 0019343 173.2963 186.8516 14.85365418 78649
COSMOS 1844             
1 17973U 87041A   26064.93525760 -.00000132  00000+0 -43375-4 0  9995
2 17973  70.8996  42.0939 0029792  23.4445 336.8027 14.14552932  3059
SL-14 R/B               
1 18153U 87055B   26064.90615594  .00000714  00000+0  79394-4 0  9997
2 18153  82.5030 352.5961 0021465  29.9520 330.2919 14.85623815 69379
COSMOS 1867             
1 18187U 87060A   26064.94819272 -.00000008  00000+0  34463-4 0  9998
2 18187  65.0117 317.1833 0014439 278.4201  81.5246 14.31502400 19408
SL-14 R/B               
1 18749U 88001B   26064.83383127  .00000864  00000+0  97109-4 0  9996
2 18749  82.5146 198.9857 0016670 249.4815 110.4612 14.85522565 41459
